OBJECT_NAME,OBJECT_ID,EPOCH,MEAN_MOTION,ECCENTRICITY,INCLINATION,RA_OF_ASC_NODE,ARG_OF_PERICENTER,MEAN_ANOMALY,EPHEMERIS_TYPE,CLASSIFICATION_TYPE,NORAD_CAT_ID,ELEMENT_SET_NO,REV_AT_EPOCH,BSTAR,MEAN_MOTION_DOT,MEAN_MOTION_DDOT
STARLINK-31845,2024-118S,2026-06-26T21:01:14.259072,15.30188797,.0001141,53.1595,237.3979,94.8328,265.2803,0,U,60129,999,11244,-.25709E-4,-.112E-4,0
STARLINK-31838,2024-118T,2026-06-26T13:34:58.245888,15.31670601,.0001402,53.1596,240.4450,101.3970,258.7189,0,U,60130,999,11237,.12664E-3,.3563E-4,0
STARLINK-31785,2024-118U,2026-06-26T21:04:36.352128,15.31696245,.0000993,53.1593,238.8397,93.6123,266.4992,0,U,60131,999,11242,-.16428E-4,-.875E-5,0
STARLINK-31792,2024-118V,2026-06-26T20:36:54.621792,15.30195183,.00011196,53.1593,237.2531,84.0897,276.0231,0,U,60132,999,11244,-.9859882E-5,-.651E-5,0
GOES 19,2024-119A,2026-06-27T04:33:38.624832,1.00271191,.00005572,0.0076,91.7909,49.8217,126.9075,0,U,60133,999,706,0,-.237E-5,0
STARLINK-32043,2024-120A,2026-06-27T06:31:33.404160,15.34394256,.00014452,53.1605,170.2247,107.2796,252.8365,0,U,60135,999,11316,-.9883204E-5,-.71E-5,0
STARLINK-32112,2024-120B,2026-06-27T06:34:35.214816,15.34389379,.00012433,53.1599,170.2416,95.5211,264.5933,0,U,60136,999,11324,-.5367074E-5,-.557E-5,0
STARLINK-32050,2024-120C,2026-06-27T06:16:24.183264,15.34392526,.00012256,53.1597,170.1623,89.9404,270.1739,0,U,60137,999,11316,-.6397114E-5,-.592E-5,0
STARLINK-32025,2024-120D,2026-06-27T07:10:48.904896,15.34379916,.00013149,53.1589,169.6808,95.6021,264.5132,0,U,60138,999,11317,.20524834E-4,.317E-5,0
STARLINK-31694,2024-120F,2026-06-27T06:43:41.134944,15.34384025,.00012309,53.1602,170.2786,89.5816,270.5327,0,U,60140,999,11324,-.18660015E-4,-.1006E-4,0
STARLINK-32036,2024-120G,2026-06-27T06:52:46.071840,15.34386136,.00011741,53.1593,170.3162,96.4317,263.6819,0,U,60141,999,11324,-.856248E-6,-.405E-5,0
STARLINK-32031,2024-120H,2026-06-27T07:07:47.117568,15.34386335,.00009217,53.1590,169.6704,115.6121,244.4977,0,U,60142,999,11325,-.10961967E-4,-.746E-5,0
STARLINK-32027,2024-120J,2026-06-27T07:13:50.357856,15.34385597,.00012369,53.1586,169.6549,86.7547,273.3597,0,U,60143,999,11325,-.16859931E-4,-.945E-5,0
STARLINK-32033,2024-120K,2026-06-27T06:58:49.555776,15.34387759,.00013378,53.1597,170.3450,96.7153,263.4002,0,U,60144,999,11316,.9090741E-5,-.69E-6,0
STARLINK-32029,2024-120L,2026-06-27T05:55:11.795520,15.34383701,.00012291,53.1593,170.0662,80.5974,279.5168,0,U,60145,999,11316,.11233107E-4,.3E-7,0
STARLINK-32127,2024-120M,2026-06-27T05:49:08.258880,15.34387225,.00013546,53.1590,170.0412,85.9638,274.1519,0,U,60146,999,11316,.2155345E-5,-.303E-5,0
STARLINK-32019,2024-120N,2026-06-27T05:52:11.210016,15.34389634,.00012668,53.1591,170.0542,94.7762,265.3385,0,U,60147,999,11316,-.30180908E-4,-.1395E-4,0
STARLINK-32021,2024-120P,2026-06-27T05:13:58.872000,15.31724726,.00011582,53.1593,160.6451,82.9493,277.1640,0,U,60148,999,11337,.9858951E-4,.2698E-4,0
STARLINK-32022,2024-120Q,2026-06-27T06:22:29.813376,15.34372445,.00009716,53.1593,170.1812,79.8131,280.2981,0,U,60149,999,11324,-.45928618E-4,-.1926E-4,0
STARLINK-32014,2024-120R,2026-06-27T05:15:56.477952,15.34384259,.0001087,53.1603,170.6032,97.7561,262.3565,0,U,60150,999,11315,.3986154E-5,-.241E-5,0
STARLINK-32004,2024-120S,2026-06-27T06:40:37.897824,15.34444432,.00008731,53.1607,170.2607,94.1308,265.9794,0,U,60151,999,11324,-.35917739E-3,-.12508E-3,0
STARLINK-32147,2024-120T,2026-06-27T06:25:29.786304,15.34388180,.0001449,53.1596,170.1988,87.9692,272.1477,0,U,60152,999,11316,.12270985E-4,.38E-6,0
STARLINK-32131,2024-120U,2026-06-27T05:46:05.811456,15.34418760,.000054,53.1592,170.0262,356.6323,3.4676,0,U,60153,999,11324,-.81679118E-4,-.3136E-4,0
STARLINK-32145,2024-120V,2026-06-27T05:43:04.632384,15.34385981,.00013322,53.1598,170.0104,87.1404,272.9751,0,U,60154,999,11316,-.4883818E-5,-.541E-5,0
STARLINK-32137,2024-120W,2026-06-27T06:13:23.140704,15.34378044,.00011176,53.1585,170.1394,66.7580,293.3541,0,U,60155,999,11316,-.76704035E-4,-.2965E-4,0
STARLINK-32048,2024-120X,2026-06-27T06:04:16.929408,15.34378951,.00011831,53.1594,170.1039,86.2135,273.9003,0,U,60156,999,11316,.22463735E-4,.382E-5,0
STARLINK-32129,2024-120Y,2026-06-27T06:07:18.451488,15.34392327,.00011593,53.1599,170.1171,92.8122,267.3013,0,U,60157,999,11324,-.14314466E-4,-.86E-5,0
ZHONGXING-3A,2024-122A,2026-06-26T07:54:12.065184,1.00272295,.0001532,0.0422,126.7500,356.6470,11.1904,0,U,60179,999,740,0,-.302E-5,0
ALOS-4 (DAICHI-4),2024-123A,2026-06-27T05:39:34.665696,14.79477220,.00015801,97.9217,275.2677,96.5086,263.6306,0,U,60182,999,10736,.21271469E-3,.1538E-4,0
STARLINK-11168 [DTC],2024-124A,2026-06-26T22:28:23.219904,15.69775600,.0000247,53.1591,342.6283,92.9703,267.1343,0,U,60183,999,11488,-.65496E-4,-.8535E-4,0
