STARLINK-31845          
1 60129U 24118S   26177.87585948 -.00001120  00000+0 -25709-4 0  9993
2 60129  53.1595 237.3979 0001141  94.8328 265.2803 15.30188797112446
STARLINK-31838          
1 60130U 24118T   26177.56595192  .00003563  00000+0  12664-3 0  9999
2 60130  53.1596 240.4450 0001402 101.3970 258.7189 15.31670601112372
STARLINK-31785          
1 60131U 24118U   26177.87819852 -.00000875  00000+0 -16428-4 0  9994
2 60131  53.1593 238.8397 0000993  93.6123 266.4992 15.31696245112424
STARLINK-31792          
1 60132U 24118V   26177.85896553 -.00000651  00000+0 -98599-5 0  9998
2 60132  53.1593 237.2531 0001119  84.0897 276.0231 15.30195183112440
GOES 19                 
1 60133U 24119A   26178.19003038 -.00000237  00000+0  00000+0 0  9999
2 60133   0.0076  91.7909 0000557  49.8217 126.9075  1.00271191  7066
STARLINK-32043          
1 60135U 24120A   26178.27191440 -.00000710  00000+0 -98832-5 0  9990
2 60135  53.1605 170.2247 0001445 107.2796 252.8365 15.34394256113161
STARLINK-32112          
1 60136U 24120B   26178.27401869 -.00000557  00000+0 -53671-5 0  9991
2 60136  53.1599 170.2416 0001243  95.5211 264.5933 15.34389379113249
STARLINK-32050          
1 60137U 24120C   26178.26139101 -.00000592  00000+0 -63971-5 0  9991
2 60137  53.1597 170.1623 0001225  89.9404 270.1739 15.34392526113164
STARLINK-32025          
1 60138U 24120D   26178.29917714  .00000317  00000+0  20525-4 0  9999
2 60138  53.1589 169.6808 0001314  95.6021 264.5132 15.34379916113175
STARLINK-31694          
1 60140U 24120F   26178.28033721 -.00001006  00000+0 -18660-4 0  9993
2 60140  53.1602 170.2786 0001230  89.5816 270.5327 15.34384025113246
STARLINK-32036          
1 60141U 24120G   26178.28664435 -.00000405  00000+0 -85625-6 0  9995
2 60141  53.1593 170.3162 0001174  96.4317 263.6819 15.34386136113249
STARLINK-32031          
1 60142U 24120H   26178.29707312 -.00000746  00000+0 -10962-4 0  9997
2 60142  53.1590 169.6704 0000921 115.6121 244.4977 15.34386335113250
STARLINK-32027          
1 60143U 24120J   26178.30127729 -.00000945  00000+0 -16860-4 0  9992
2 60143  53.1586 169.6549 0001236  86.7547 273.3597 15.34385597113251
STARLINK-32033          
1 60144U 24120K   26178.29085134 -.00000069  00000+0  90907-5 0  9995
2 60144  53.1597 170.3450 0001337  96.7153 263.4002 15.34387759113163
STARLINK-32029          
1 60145U 24120L   26178.24666430  .00000003  00000+0  11233-4 0  9996
2 60145  53.1593 170.0662 0001229  80.5974 279.5168 15.34383701113168
STARLINK-32127          
1 60146U 24120M   26178.24245670 -.00000303  00000+0  21553-5 0  9997
2 60146  53.1590 170.0412 0001354  85.9638 274.1519 15.34387225113160
STARLINK-32019          
1 60147U 24120N   26178.24457419 -.00001395  00000+0 -30181-4 0  9993
2 60147  53.1591 170.0542 0001266  94.7762 265.3385 15.34389634113163
STARLINK-32021          
1 60148U 24120P   26178.21804250  .00002698  00000+0  98590-4 0  9993
2 60148  53.1593 160.6451 0001158  82.9493 277.1640 15.31724726113370
STARLINK-32022          
1 60149U 24120Q   26178.26562284 -.00001926  00000+0 -45929-4 0  9990
2 60149  53.1593 170.1812 0000971  79.8131 280.2981 15.34372445113243
STARLINK-32014          
1 60150U 24120R   26178.21940368 -.00000241  00000+0  39862-5 0  9998
2 60150  53.1603 170.6032 0001087  97.7561 262.3565 15.34384259113156
STARLINK-32004          
1 60151U 24120S   26178.27821641 -.00012508  00000+0 -35918-3 0  9993
2 60151  53.1607 170.2607 0000873  94.1308 265.9794 15.34444432113240
STARLINK-32147          
1 60152U 24120T   26178.26770586  .00000038  00000+0  12271-4 0  9995
2 60152  53.1596 170.1988 0001449  87.9692 272.1477 15.34388180113161
STARLINK-32131          
1 60153U 24120U   26178.24034504 -.00003136  00000+0 -81679-4 0  9999
2 60153  53.1592 170.0262 0000540 356.6323   3.4676 15.34418760113243
STARLINK-32145          
1 60154U 24120V   26178.23824806 -.00000541  00000+0 -48838-5 0  9999
2 60154  53.1598 170.0104 0001332  87.1404 272.9751 15.34385981113167
STARLINK-32137          
1 60155U 24120W   26178.25929561 -.00002965  00000+0 -76704-4 0  9990
2 60155  53.1585 170.1394 0001117  66.7580 293.3541 15.34378044113161
STARLINK-32048          
1 60156U 24120X   26178.25297372  .00000382  00000+0  22464-4 0  9992
2 60156  53.1594 170.1039 0001183  86.2135 273.9003 15.34378951113168
STARLINK-32129          
1 60157U 24120Y   26178.25507467 -.00000860  00000+0 -14314-4 0  9990
2 60157  53.1599 170.1171 0001159  92.8122 267.3013 15.34392327113243
ZHONGXING-3A            
1 60179U 24122A   26177.32930631 -.00000302  00000+0  00000+0 0  9998
2 60179   0.0422 126.7500 0001532 356.6470  11.1904  1.00272295  7401
ALOS-4 (DAICHI-4)       
1 60182U 24123A   26178.23581789  .00001538  00000+0  21271-3 0  9998
2 60182  97.9217 275.2677 0001580  96.5086 263.6306 14.79477220107364
STARLINK-11168 [DTC]    
1 60183U 24124A   26177.93637986 -.00008535  00000+0 -65496-4 0  9991
2 60183  53.1591 342.6283 0000247  92.9703 267.1343 15.69775600114889
